ONEWEB-0116             
1 48046U 21025E   26003.50684498  .00000268  00000+0  69908-3 0  9997
2 48046  87.8990 352.9367 0001773  82.3085 277.8245 13.13469654232031
ONEWEB-0150             
1 48047U 21025F   26003.48314414  .00000313  00000+0  82211-3 0  9996
2 48047  87.8992 352.9376 0001787  93.2179 266.9154 13.13471325231927
ONEWEB-0107             
1 48048U 21025G   26003.48484036  .00000317  00000+0  83408-3 0  9998
2 48048  87.8992 352.9334 0001493  92.2497 267.8803 13.13469867231905
ONEWEB-0101             
1 48049U 21025H   26003.44758701 -.00000215  00000+0 -62378-3 0  9990
2 48049  87.8982 352.9720 0001529  85.0674 275.0629 13.13469689231876
ONEWEB-0113             
1 48050U 21025J   26003.53152884 -.00000185  00000+0 -53816-3 0  9995
2 48050  87.8989 352.8813 0001924  85.5643 274.5706 13.13987155231982
ONEWEB-0112             
1 48051U 21025K   26003.48991298  .00000355  00000+0  93765-3 0  9994
2 48051  87.8991 352.9298 0001716  88.5394 271.5932 13.13469072231979
ONEWEB-0156             
1 48052U 21025L   26003.49838757  .00000369  00000+0  97419-3 0  9991
2 48052  87.8992 352.9394 0001618  90.6763 269.4552 13.13470915231953
ONEWEB-0161             
1 48053U 21025M   26003.47298732  .00000125  00000+0  30752-3 0  9990
2 48053  87.8984 352.9587 0001599  92.9926 267.1386 13.13470669231881
